{
    "links": {
        "self": "http://www.neowsapp.com/rest/v1/neo/3843821?api_key=iIulBulltgU6a56xZRHN4H3l9WmuAYTsLGpBGhQ2"
    },
    "id": "3843821",
    "neo_reference_id": "3843821",
    "name": "(2019 RB2)",
    "designation": "2019 RB2",
    "nasa_jpl_url": "http://ssd.jpl.nasa.gov/sbdb.cgi?sstr=3843821",
    "absolute_magnitude_h": 27.7,
    "estimated_diameter": {
        "kilometers": {
            "estimated_diameter_min": 0.0076657557,
            "estimated_diameter_max": 0.0171411509
        },
        "meters": {
            "estimated_diameter_min": 7.6657557353,
            "estimated_diameter_max": 17.1411509231
        },
        "miles": {
            "estimated_diameter_min": 0.0047632783,
            "estimated_diameter_max": 0.0106510141
        },
        "feet": {
            "estimated_diameter_min": 25.1501180466,
            "estimated_diameter_max": 56.2373735944
        }
    },
    "is_potentially_hazardous_asteroid": false,
    "close_approach_data": [
        {
            "close_approach_date": "2019-09-03",
            "close_approach_date_full": "2019-Sep-03 17:05",
            "epoch_date_close_approach": 1567530300000,
            "relative_velocity": {
                "kilometers_per_second": "7.0068533899",
                "kilometers_per_hour": "25224.6722035758",
                "miles_per_hour": "15673.6303478274"
            },
            "miss_distance": {
                "astronomical": "0.0036791111",
                "lunar": "1.4311742179",
                "kilometers": "550387.184053357",
                "miles": "341994.7376640466"
            },
            "orbiting_body": "Moon"
        },
        {
            "close_approach_date": "2019-09-04",
            "close_approach_date_full": "2019-Sep-04 06:14",
            "epoch_date_close_approach": 1567577640000,
            "relative_velocity": {
                "kilometers_per_second": "6.5786229877",
                "kilometers_per_hour": "23683.0427556408",
                "miles_per_hour": "14715.7217611369"
            },
            "miss_distance": {
                "astronomical": "0.0028394688",
                "lunar": "1.1045533632",
                "kilometers": "424778.484411456",
                "miles": "263945.1109158528"
            },
            "orbiting_body": "Earth"
        },
        {
            "close_approach_date": "2024-06-29",
            "close_approach_date_full": "2024-Jun-29 16:22",
            "epoch_date_close_approach": 1719678120000,
            "relative_velocity": {
                "kilometers_per_second": "19.0197414549",
                "kilometers_per_hour": "68471.0692374794",
                "miles_per_hour": "42545.259660366"
            },
            "miss_distance": {
                "astronomical": "0.415910937",
                "lunar": "161.789354493",
                "kilometers": "62219390.28490419",
                "miles": "38661336.373050222"
            },
            "orbiting_body": "Earth"
        }
    ],
    "orbital_data": {
        "orbit_id": "1",
        "orbit_determination_date": "2019-09-08 15:12:05",
        "first_observation_date": "2019-09-05",
        "last_observation_date": "2019-09-07",
        "data_arc_in_days": 2,
        "observations_used": 18,
        "orbit_uncertainty": "7",
        "minimum_orbit_intersection": ".00319966",
        "jupiter_tisserand_invariant": "3.914",
        "epoch_osculation": "2459000.5",
        "eccentricity": ".4458869489770036",
        "semi_major_axis": "1.822004343580227",
        "inclination": "3.086598082067944",
        "ascending_node_longitude": "163.6497742372809",
        "orbital_period": "898.3023562458385",
        "perihelion_distance": "1.009596385798391",
        "perihelion_argument": "173.7523884316103",
        "aphelion_distance": "2.634412301362062",
        "perihelion_time": "2458727.511275147879",
        "mean_anomaly": "109.4018514628814",
        "mean_motion": ".4007559342318799",
        "equinox": "J2000",
        "orbit_class": {
            "orbit_class_type": "APO",
            "orbit_class_description": "Near-Earth asteroid orbits which cross the Earth’s orbit similar to that of 1862 Apollo",
            "orbit_class_range": "a (semi-major axis) > 1.0 AU; q (perihelion) < 1.017 AU"
        }
    },
    "is_sentry_object": false
}